OBJECT_NAME,OBJECT_ID,EPOCH,MEAN_MOTION,ECCENTRICITY,INCLINATION,RA_OF_ASC_NODE,ARG_OF_PERICENTER,MEAN_ANOMALY,EPHEMERIS_TYPE,CLASSIFICATION_TYPE,NORAD_CAT_ID,ELEMENT_SET_NO,REV_AT_EPOCH,BSTAR,MEAN_MOTION_DOT,MEAN_MOTION_DDOT
AISTECHSAT 2,2018-099L,2026-07-18T13:57:35.646912,15.15732636,.0005004,97.4273,246.9311,169.5877,190.5460,0,U,43768,999,41703,.12481E-3,.2314E-4,0
FOX-1CLIFF (AO-95),2018-099N,2026-07-18T03:19:05.980224,15.27309721,.00074754,97.4363,259.2809,227.7066,132.3540,0,U,43770,999,41794,.22607484E-3,.5977E-4,0
RANGE-A,2018-099R,2026-07-18T20:18:37.905120,15.13625120,.000894,97.3948,241.5012,230.2684,129.7760,0,U,43773,999,41728,.1239E-3,.2163E-4,0
SNUSAT-2,2018-099AA,2026-07-18T13:27:33.921792,15.22268993,.001061,97.4038,252.4687,176.3050,183.8266,0,U,43782,999,41780,.18639E-3,.4225E-4,0
SNUGLITE,2018-099AC,2026-07-18T14:06:05.026752,15.27800851,.000393,97.3844,253.5690,150.9452,209.2007,0,U,43784,999,41811,.21335E-3,.5719E-4,0
ITASAT,2018-099AE,2026-07-18T16:51:23.038272,15.19405003,.00111,97.4009,250.5895,236.4623,123.5552,0,U,43786,999,41769,.15156E-3,.3145E-4,0
EAGLET-I,2018-099AJ,2026-07-18T15:57:05.468832,15.13148382,.0009814,97.4212,248.5008,230.5618,129.4746,0,U,43790,999,41709,.10208E-3,.1747E-4,0
ESEO,2018-099AL,2026-07-18T20:14:01.674816,15.04331835,.001109,97.3963,235.8744,219.1861,140.8564,0,U,43792,999,41656,.84366E-4,.1119E-4,0
THEA,2018-099AQ,2026-07-18T03:44:37.569696,15.36000088,.00083,97.4422,269.1693,164.7665,195.3831,0,U,43796,999,41744,.30756506E-3,.10713E-3,0
ASTROCAST 0.1,2018-099AS,2026-07-18T19:37:14.770848,15.51623308,.000544,97.4365,279.3498,119.5127,240.6668,0,U,43798,999,41933,.39444E-3,.23362E-3,0
JY1SAT (JO-97),2018-099AX,2026-07-18T03:25:52.114656,15.34577339,.00070997,97.4106,262.1024,149.2378,210.9282,0,U,43803,999,41837,.28599386E-3,.9509E-4,0
SUOMI-100,2018-099AY,2026-07-18T16:33:11.901312,15.29079887,.0010886,97.4162,259.9778,160.7892,199.3760,0,U,43804,999,41823,.22019E-3,.615E-4,0
CENTAURI-1,2018-099BD,2026-07-18T16:18:52.723296,15.16643434,.0013291,97.4200,250.7260,212.0039,148.0388,0,U,43809,999,41727,.13862E-3,.265E-4,0
GLOBAL-2,2018-099BG,2026-07-18T20:13:42.290112,15.08838248,.0007178,97.3547,235.0402,57.2308,302.9612,0,U,43812,999,41668,.11713E-3,.1784E-4,0
SEAHAWK-1,2018-099BQ,2026-07-18T16:07:47.839872,15.23270721,.0008243,97.3935,251.6846,186.0883,174.0255,0,U,43820,999,41732,.18267E-3,.4263E-4,0
SAUDISAT 5A,2018-102A,2026-07-18T20:33:09.623232,15.28341706,.0010097,97.3046,260.8301,31.9494,328.2357,0,U,43831,999,42051,.99496E-4,.2676E-4,0
SAUDISAT 5B,2018-102C,2026-07-18T20:52:52.300992,15.28583797,.001087,97.3155,263.9707,33.2247,326.9673,0,U,43833,999,42063,.93659E-4,.2534E-4,0
2018-102D,2018-102D,2026-07-18T20:04:00.141600,15.71966276,.0002943,97.3415,290.5373,248.5119,111.5831,0,U,43834,999,42221,.45301E-3,.5919E-3,0
ISAT,2018-111D,2026-07-18T19:23:35.518272,15.71450890,.0008269,97.5852,137.6108,132.9607,227.2350,0,U,43879,999,41612,.63369E-3,.81425E-3,0
UWE-4,2018-111E,2026-07-18T18:41:09.153024,15.47960214,.0006675,97.5834,129.6699,180.9155,179.2083,0,U,43880,999,41566,.35827E-3,.18634E-3,0
D-STAR ONE (SPARROW),2018-111F,2026-07-18T19:06:15.890400,15.86443595,.0008768,97.6079,143.9206,136.3743,223.8222,0,U,43881,999,41636,.79803E-3,.204153E-2,0
JILIN-1 09,2019-005B,2026-07-18T19:57:21.153312,15.20758074,.0001996,97.4744,294.5300,28.1870,331.9473,0,U,43943,999,41395,.10221E-3,.2181E-4,0
JILIN-1 10,2019-005E,2026-07-18T19:12:55.047168,15.26029542,.0008923,97.4796,298.6134,158.0722,202.0900,0,U,43946,999,41413,.12386E-3,.3116E-4,0
EGYPTSAT-A (MISRSAT-A),2019-008A,2026-07-18T19:30:39.859776,14.72338148,.0001763,98.0176,264.1485,92.1525,267.9885,0,U,44047,999,39789,.43139E-4,.223E-5,0
EMISAT,2019-018A,2026-07-18T21:18:30.096576,14.43649960,.0019498,98.4627,258.5107,120.6667,239.6449,0,U,44078,999,38463,.12002E-4,-.3E-7,0
JILIN-1 GAOFEN 3A,2019-032C,2026-07-18T19:41:02.236992,15.33237089,.0004921,44.9735,182.7526,132.1615,227.9688,0,U,44312,999,39269,.2025E-3,.6323E-4,0
WT 1B,2019-032G,2026-07-18T20:26:57.960672,15.27762908,.0008172,44.9728,248.0201,59.0245,301.1440,0,U,44316,999,39192,.1614E-3,.4166E-4,0
PROX-1,2019-036A,2026-07-18T12:17:27.041856,14.91286428,.00062638,23.9943,264.8852,44.1497,315.9502,0,U,44339,999,37815,.55193083E-3,.592E-4,0
NPSAT1,2019-036B,2026-07-18T18:50:09.394944,14.74839385,.000726,24.0004,11.9174,208.4003,151.6098,0,U,44340,999,37716,.35284E-3,.2667E-4,0
FORMOSAT 7-3,2019-036E,2026-07-18T15:21:10.835136,15.10009271,.0000303,23.9998,322.0320,342.8292,17.2201,0,U,44343,999,38800,.12154E-3,.2372E-4,0
