{"_default": { "5": {"norad_id": "43881", "name": "D-STAR ONE SPARROW", "tle1": "1 43881U 18111F   26199.79601725  .00204153  00000-0  79803-3 0  9995", "tle2": "2 43881  97.6079 143.9206 0008768 136.3743 223.8222 15.86443595416366", "object_type": "PAYLOAD", "criticality_score": 9.0, "last_updated": "2026-07-19T02:53:59.007202+00:00", "maneuver_count": 0, "owner": "GER"}, "6": {"norad_id": "43790", "name": "EAGLET 1", "tle1": "1 43790U 18099AJ  26199.66464663  .00001747  00000-0  10208-3 0  9991", "tle2": "2 43790  97.4212 248.5008 0009814 230.5618 129.4746 15.13148382417094", "object_type": "PAYLOAD", "criticality_score": 9.0, "last_updated": "2026-07-19T02:53:59.007202+00:00", "maneuver_count": 0, "owner": "IT"}, "7": {"norad_id": "43773", "name": "RANGE A", "tle1": "1 43773U 18099R   26199.84627205  .00002163  00000-0  12390-3 0  9992", "tle2": "2 43773  97.3948 241.5012 0008940 230.2684 129.7760 15.13625120417287", "object_type": "PAYLOAD", "criticality_score": 9.0, "last_updated": "2026-07-19T02:53:59.007202+00:00", "maneuver_count": 0, "owner": "US"}, "8": {"norad_id": "43770", "name": "AO-95", "tle1": "1 43770U 18099N   26199.13826366  .00005977  00000-0  22607-3 0  9998", "tle2": "2 43770  97.4363 259.2809 0007475 227.7066 132.3540 15.27309721417943", "object_type": "PAYLOAD", "criticality_score": 9.0, "last_updated": "2026-07-19T02:53:59.007202+00:00", "maneuver_count": 0, "owner": "US"}, "41": {"norad_id": "44339", "name": "PROX-1", "tle1": "1 44339U 19036A   26199.51211854  .00005920  00000-0  55193-3 0  9998", "tle2": "2 44339  23.9943 264.8852 0006264  44.1497 315.9502 14.91286428378151", "object_type": "PAYLOAD", "criticality_score": 9.0, "last_updated": "2026-07-19T02:53:59.007202+00:00", "maneuver_count": 0, "owner": "US"}, "69": {"norad_id": "43880", "name": "UWE-4", "tle1": "1 43880U 18111E   26199.77857816  .00018634  00000-0  35827-3 0  9991", "tle2": "2 43880  97.5834 129.6699 0006675 180.9155 179.2083 15.47960214415667", "object_type": "PAYLOAD", "criticality_score": 9.0, "last_updated": "2026-07-19T02:53:59.007202+00:00", "maneuver_count": 0, "owner": "GER"}, "70": {"norad_id": "43804", "name": "SUOMI100", "tle1": "1 43804U 18099AY  26199.68972108  .00006150  00000-0  22019-3 0  9993", "tle2": "2 43804  97.4162 259.9778 0010886 160.7892 199.3760 15.29079887418232", "object_type": "PAYLOAD", "criticality_score": 9.0, "last_updated": "2026-07-19T02:53:59.007202+00:00", "maneuver_count": 0, "owner": "FIN"}, "71": {"norad_id": "43798", "name": "ASTROCAST-01", "tle1": "1 43798U 18099AS  26199.81753207  .00023362  00000-0  39444-3 0  9991", "tle2": "2 43798  97.4365 279.3498 0005440 119.5127 240.6668 15.51623308419334", "object_type": "PAYLOAD", "criticality_score": 9.0, "last_updated": "2026-07-19T02:53:59.007202+00:00", "maneuver_count": 0, "owner": "SWTZ"}, "72": {"norad_id": "43786", "name": "ITASAT", "tle1": "1 43786U 18099AE  26199.70234998  .00003145  00000-0  15156-3 0  9998", "tle2": "2 43786  97.4009 250.5895 0011100 236.4623 123.5552 15.19405003417690", "object_type": "PAYLOAD", "criticality_score": 9.0, "last_updated": "2026-07-19T02:53:59.007202+00:00", "maneuver_count": 0, "owner": "BRAZ"}, "73": {"norad_id": "43784", "name": "SNUGLITE", "tle1": "1 43784U 18099AC  26199.58755818  .00005719  00000-0  21335-3 0  9996", "tle2": "2 43784  97.3844 253.5690 0003930 150.9452 209.2007 15.27800851418116", "object_type": "PAYLOAD", "criticality_score": 9.0, "last_updated": "2026-07-19T02:53:59.007202+00:00", "maneuver_count": 0, "owner": "SKOR"}, "74": {"norad_id": "43782", "name": "SNUSAT-2", "tle1": "1 43782U 18099AA  26199.56080928  .00004225  00000-0  18639-3 0  9999", "tle2": "2 43782  97.4038 252.4687 0010610 176.3050 183.8266 15.22268993417802", "object_type": "PAYLOAD", "criticality_score": 9.0, "last_updated": "2026-07-19T02:53:59.007202+00:00", "maneuver_count": 0, "owner": "SKOR"}, "103": {"norad_id": "43768", "name": "AISTECHSAT-2", "tle1": "1 43768U 18099L   26199.58166258  .00002314  00000-0  12481-3 0  9992", "tle2": "2 43768  97.4273 246.9311 0005004 169.5877 190.5460 15.15732636417039", "object_type": "PAYLOAD", "criticality_score": 9.0, "last_updated": "2026-07-19T02:53:59.007202+00:00", "maneuver_count": 0, "owner": "SPN"}, "133": {"norad_id": "43879", "name": "ISAT", "tle1": "1 43879U 18111D   26199.80804998  .00081425  00000-0  63369-3 0  9996", "tle2": "2 43879  97.5852 137.6108 0008269 132.9607 227.2350 15.71450890416123", "object_type": "PAYLOAD", "criticality_score": 9.0, "last_updated": "2026-07-19T02:53:59.007202+00:00", "maneuver_count": 0, "owner": "GER"}, "134": {"norad_id": "43809", "name": "CENTAURI-1", "tle1": "1 43809U 18099BD  26199.67977689  .00002650  00000-0  13862-3 0  9993", "tle2": "2 43809  97.4200 250.7260 0013291 212.0039 148.0388 15.16643434417273", "object_type": "PAYLOAD", "criticality_score": 9.0, "last_updated": "2026-07-19T02:53:59.007202+00:00", "maneuver_count": 0, "owner": "AUS"}, "135": {"norad_id": "43803", "name": "JY1SAT", "tle1": "1 43803U 18099AX  26199.14296429  .00009509  00000-0  28599-3 0  9998", "tle2": "2 43803  97.4106 262.1024 0007100 149.2378 210.9282 15.34577339418370", "object_type": "PAYLOAD", "criticality_score": 9.0, "last_updated": "2026-07-19T02:53:59.007202+00:00", "maneuver_count": 0, "owner": "JOR"}, "136": {"norad_id": "43792", "name": "ESEO", "tle1": "1 43792U 18099AL  26199.84307494  .00001119  00000-0  84366-4 0  9991", "tle2": "2 43792  97.3963 235.8744 0011090 219.1861 140.8564 15.04331835416569", "object_type": "PAYLOAD", "criticality_score": 9.0, "last_updated": "2026-07-19T02:53:59.007202+00:00", "maneuver_count": 0, "owner": "ESA"}, "196": {"norad_id": "43943", "name": "JILIN-01-09", "tle1": "1 43943U 19005B   26199.83149483  .00002181  00000-0  10221-3 0  9996", "tle2": "2 43943  97.4744 294.5300 0001996  28.1870 331.9473 15.20758074413955", "object_type": "PAYLOAD", "criticality_score": 9.0, "last_updated": "2026-07-19T02:53:59.007202+00:00", "maneuver_count": 0, "owner": "PRC"}, "197": {"norad_id": "43946", "name": "JILIN-01-10", "tle1": "1 43946U 19005E   26199.80063712  .00003116  00000-0  12386-3 0  9999", "tle2": "2 43946  97.4796 298.6134 0008923 158.0722 202.0900 15.26029542414132", "object_type": "PAYLOAD", "criticality_score": 9.0, "last_updated": "2026-07-19T02:53:59.007202+00:00", "maneuver_count": 0, "owner": "PRC"}, "236": {"norad_id": "43820", "name": "SEAHAWK-1", "tle1": "1 43820U 18099BQ  26199.67208148  .00004263  00000-0  18267-3 0  9999", "tle2": "2 43820  97.3935 251.6846 0008243 186.0883 174.0255 15.23270721417329", "object_type": "PAYLOAD", "criticality_score": 9.0, "last_updated": "2026-07-19T02:53:59.007202+00:00", "maneuver_count": 0, "owner": "US"}, "240": {"norad_id": "44343", "name": "FORMOSAT7-3/COSMIC2-3", "tle1": "1 44343U 19036E   26199.63970874  .00002372  00000-0  12154-3 0  9998", "tle2": "2 44343  23.9998 322.0320 0000303 342.8292  17.2201 15.10009271388006", "object_type": "PAYLOAD", "criticality_score": 9.0, "last_updated": "2026-07-19T02:53:59.007202+00:00", "maneuver_count": 0, "owner": "ROC"}, "269": {"norad_id": "43834", "name": "OBJECT D", "tle1": "1 43834U 18102D   26199.83611275  .00059190  00000-0  45301-3 0  9994", "tle2": "2 43834  97.3415 290.5373 0002943 248.5119 111.5831 15.71966276422211", "object_type": "PAYLOAD", "criticality_score": 9.0, "last_updated": "2026-07-19T02:53:59.007202+00:00", "maneuver_count": 0, "owner": "TBD"}, "270": {"norad_id": "44312", "name": "OBJECT C", "tle1": "1 44312U 19032C   26199.82016478  .00006323  00000-0  20250-3 0  9998", "tle2": "2 44312  44.9735 182.7526 0004921 132.1615 227.9688 15.33237089392696", "object_type": "PAYLOAD", "criticality_score": 9.0, "last_updated": "2026-07-19T02:53:59.007202+00:00", "maneuver_count": 0, "owner": "PRC"}, "272": {"norad_id": "43812", "name": "GLOBAL-2", "tle1": "1 43812U 18099BG  26199.84285058  .00001784  00000-0  11713-3 0  9998", "tle2": "2 43812  97.3547 235.0402 0007178  57.2308 302.9612 15.08838248416684", "object_type": "PAYLOAD", "criticality_score": 9.0, "last_updated": "2026-07-19T02:53:59.007202+00:00", "maneuver_count": 0, "owner": "US"}, "322": {"norad_id": "44316", "name": "OBJECT G", "tle1": "1 44316U 19032G   26199.85205973  .00004166  00000-0  16140-3 0  9991", "tle2": "2 44316  44.9728 248.0201 0008172  59.0245 301.1440 15.27762908391928", "object_type": "PAYLOAD", "criticality_score": 9.0, "last_updated": "2026-07-19T02:53:59.007202+00:00", "maneuver_count": 0, "owner": "PRC"}, "395": {"norad_id": "43831", "name": "SAUDISAT 5A", "tle1": "1 43831U 18102A   26199.85636138  .00002676  00000-0  99496-4 0  9990", "tle2": "2 43831  97.3046 260.8301 0010097  31.9494 328.2357 15.28341706420516", "object_type": "PAYLOAD", "criticality_score": 9.0, "last_updated": "2026-07-19T02:53:59.007202+00:00", "maneuver_count": 0, "owner": "SAUD"}, "396": {"norad_id": "43833", "name": "SAUDISAT 5B", "tle1": "1 43833U 18102C   26199.87004978  .00002534  00000-0  93659-4 0  9993", "tle2": "2 43833  97.3155 263.9707 0010870  33.2247 326.9673 15.28583797420630", "object_type": "PAYLOAD", "criticality_score": 9.0, "last_updated": "2026-07-19T02:53:59.007202+00:00", "maneuver_count": 0, "owner": "SAUD"}, "418": {"norad_id": "44047", "name": "EGYPTSAT A", "tle1": "1 44047U 19008A   26199.81296134  .00000223  00000-0  43139-4 0  9999", "tle2": "2 44047  98.0176 264.1485 0001763  92.1525 267.9885 14.72338148397895", "object_type": "PAYLOAD", "criticality_score": 9.0, "last_updated": "2026-07-19T02:53:59.007202+00:00", "maneuver_count": 0, "owner": "EGYP"}, "461": {"norad_id": "44078", "name": "EMISAT", "tle1": "1 44078U 19018A   26199.88784834 -.00000003  00000-0  12002-4 0  9992", "tle2": "2 44078  98.4627 258.5107 0019498 120.6667 239.6449 14.43649960384635", "object_type": "PAYLOAD", "criticality_score": 9.0, "last_updated": "2026-07-19T02:53:59.007202+00:00", "maneuver_count": 0, "owner": "IND"}, "633": {"norad_id": "43796", "name": "THEA", "tle1": "1 43796U 18099AQ  26199.15599039  .00010713  00000-0  30757-3 0  9991", "tle2": "2 43796  97.4422 269.1693 0008300 164.7665 195.3831 15.36000088417442", "object_type": "PAYLOAD", "criticality_score": 9.0, "last_updated": "2026-07-19T02:53:59.007202+00:00", "maneuver_count": 0, "owner": "US"}, "648": {"norad_id": "44340", "name": "NPSAT1", "tle1": "1 44340U 19036B   26199.78483096  .00002667  00000-0  35284-3 0  9992", "tle2": "2 44340  24.0004  11.9174 0007260 208.4003 151.6098 14.74839385377168", "object_type": "PAYLOAD", "criticality_score": 9.0, "last_updated": "2026-07-19T02:53:59.007202+00:00", "maneuver_count": 0, "owner": "US"}}}